OSCAR 7 (AO-7)          
1 07530U 74089B   26199.33335846 -.00000050  00000+0 -23409-4 0  9993
2 07530 101.9906 212.9046 0012646  72.5596 301.3318 12.53698607364425
PHASE 3B (AO-10)        
1 14129U 83058B   26194.10401075 -.00000187  00000+0  00000+0 0  9996
2 14129  25.9345 215.2934 6002223 122.7887 309.2966  2.05872336296023
UOSAT 2 (UO-11)         
1 14781U 84021B   26198.89455258  .00000531  00000+0  59556-4 0  9990
2 14781  97.8078 164.1312 0009250  83.9796 276.2476 14.90852514261707
LUSAT (LO-19)           
1 20442U 90005G   26199.29871779  .00000024  00000+0  25339-4 0  9994
2 20442  98.8847 221.9606 0012612 113.0543 247.1972 14.34131248906854
EYESAT A (AO-27)        
1 22825U 93061C   26199.18581315  .00000029  00000+0  27847-4 0  9999
2 22825  98.6865 266.5857 0008592  17.4944 342.6533 14.30949549711435
ITAMSAT (IO-26)         
1 22826U 93061D   26199.15597196  .00000035  00000+0  29941-4 0  9995
2 22826  98.6813 266.4764 0008747   0.7284 359.3910 14.31377218711746
RADIO ROSTO (RS15)      
1 23439U 94085A   26199.15716131 -.00000038  00000+0  11801-3 0  9994
2 23439  64.8146 253.1302 0157032 358.1649   1.8681 11.27583518299399
JAS-2 (FO-29)           
1 24278U 96046B   26199.14107666 -.00000031  00000+0  44640-5 0  9993
2 24278  98.5218  43.7700 0350221  16.3074 344.9004 13.53275822477351
TECHSAT 1B (GO-32)      
1 25397U 98043D   26198.97124761  .00000003  00000+0  21480-4 0  9994
2 25397  99.0087 192.5089 0002266 110.8541 249.2880 14.24433657455715
ISS (ZARYA)             
1 25544U 98067A   26199.08891132  .00003768  00000+0  76429-4 0  9994
2 25544  51.6318 147.1664 0006793 308.8910  51.1472 15.49037991576544
PCSAT (NO-44)           
1 26931U 01043C   26199.17055623  .00000023  00000+0  39648-4 0  9993
2 26931  67.0497 164.1338 0005881 266.7892  93.2537 14.31965620294881
SAUDISAT 1C (SO-50)     
1 27607U 02058C   26198.97124482  .00000371  00000+0  61897-4 0  9995
2 27607  64.5519  33.7353 0074441 256.7655 102.5140 14.83101410269029
CUTE-1 (CO-55)          
1 27844U 03031E   26199.29733931  .00000128  00000+0  74435-4 0  9993
2 27844  98.6744 207.4657 0010867  94.6885 265.5536 14.24352673196104
CUBESAT XI-IV (CO-57)   
1 27848U 03031J   26198.95002441  .00000107  00000+0  66203-4 0  9995
2 27848  98.6776 206.8106 0010632 112.1739 248.0569 14.23635431195756
MOZHAETS 4 (RS22)       
1 27939U 03042A   26199.32526797  .00000443  00000+0  76443-4 0  9995
2 27939  98.3473  24.5650 0011474 163.3826 321.2806 14.73517394220138
CUBESAT XI-V            
1 28895U 05043F   26197.95849456  .00000631  00000+0  10709-3 0  9998
2 28895  98.3017 354.2118 0015312 110.0551 250.2305 14.72704810106133
CUTE-1.7+APD II (CO-65) 
1 32785U 08021C   26199.20357444  .00002036  00000+0  13048-3 0  9991
2 32785  97.8299 181.2770 0006839 287.0657  72.9822 15.09715838989876
SEEDS II (CO-66)        
1 32791U 08021J   26199.26543741  .00009917  00000+0  30654-3 0  9998
2 32791  97.7531 198.6727 0003420 150.0473 210.0965 15.33729458992050
YUBILEINY (RS30)        
1 32953U 08025A   26199.32395772  .00000003  00000+0 -48977-4 0  9994
2 32953  82.5068 336.0703 0018692 241.7403 118.1791 12.43180656823560
KKS-1 (KISEKI)          
1 33499U 09002H   26199.22281002  .00000591  00000+0  79242-4 0  9995
2 33499  98.1172 122.1568 0007675 178.9108 181.2124 14.83193133940796
SWISSCUBE               
1 35932U 09051B   26198.68225148  .00000433  00000+0  95101-4 0  9998
2 35932  98.4004 107.0987 0007946 112.4041 247.8002 14.62533257893618
BEESAT-1                
1 35933U 09051C   26198.70764305  .00000353  00000+0  80631-4 0  9998
2 35933  98.3931 106.6958 0006240 123.4432 236.7366 14.61763986893648
ITUPSAT1                
1 35935U 09051E   26199.20487644  .00000331  00000+0  78213-4 0  9993
2 35935  98.4013 106.3592 0008268 134.7266 225.4608 14.60481150893266
XIWANG-1 (HOPE-1)       
1 36122U 09072B   26199.25152088 -.00000288  00000+0 -63675-3 0  9999
2 36122 100.4043 152.5903 0007616 158.0286 202.1155 13.16438422797095
O/OREOS (USA 219)       
1 37224U 10062C   26198.86696531  .00000995  00000+0  99550-4 0  9991
2 37224  71.9699  10.8352 0014143 359.8966   0.2199 14.93857336121227
JUGNU                   
1 37839U 11058B   26199.07999843  .00000345  00000+0  40698-4 0  9993
2 37839  19.9598 120.7356 0018620  58.2060  59.5664 14.13783916763403
SRMSAT                  
1 37841U 11058D   26199.33131781  .00000323  00000+0  31598-4 0  9999
2 37841  19.9705 230.9631 0011674 185.6722 272.4800 14.11581459762221
STRAND-1                
1 39090U 13009E   26199.24638356  .00000108  00000+0  50761-4 0  9999
2 39090  98.3937  18.7186 0009554 132.8363 227.3628 14.37179871701525
ZACUBE-1 (TSHEPISOSAT)  
1 39417U 13066B   26198.86726362  .00001255  00000+0  10038-3 0  9993
2 39417  97.8005 161.3542 0044051 146.6146 213.7870 15.01335799685335
GOMX-1                  
1 39430U 13066Q   26199.23521131  .00000555  00000+0  90350-4 0  9995
2 39430  97.6462  37.7382 0127971 338.4264  21.1578 14.69546250674476
